LEMUR-2-PETERG          
1 42841U 17042S   26068.48235713  .00023240  00000+0  81076-3 0  9993
2 42841  97.3980 253.6596 0003700 341.6938  18.4169 15.29611459473171
STARLINK-32938          
1 63201U 25048U   26068.11306654  .00027488  00000+0  10035-2 0  9998
2 63201  42.9993  88.5968 0001638 281.6185  78.4483 15.27619256 57003
